NORAD_CAT_ID,OBJECT_NAME,OBJECT_TYPE,EPOCH,MEAN_MOTION,ECCENTRICITY,INCLINATION,RA_OF_ASC_NODE,ARG_OF_PERICENTER,MEAN_ANOMALY,BSTAR,MEAN_MOTION_DOT,MEAN_MOTION_DDOT,TLE_LINE0,TLE_LINE1,TLE_LINE2,SEMIMAJOR_AXIS,PERIOD,APOGEE,PERIGEE,DECAYED
51895.0,STARLINK-3594,PAYLOAD,2023-02-12 21:14:11,15.087963,0.0001222,53.2156,350.6158,94.7346,265.3785,0.00033003,4.962e-05,0.0,0 STARLINK-3594,1 51895U 22022AV  23043.88485347  .00004962  00000-0  33003-3 0  9998,2 51895  53.2156 350.6158 0001222  94.7346 265.3785 15.08796300 54048,6918.014,95.44,540.724,539.034,0.0
51895.0,STARLINK-3594,PAYLOAD,2023-02-13 05:11:07,15.08824238,0.000134,53.2151,349.1285,99.1539,260.9605,0.0015525,0.00024496,0.0,0 STARLINK-3594,1 51895U 22022AV  23044.21605638  .00024496  00000-0  15525-2 0  9995,2 51895  53.2151 349.1285 0001340  99.1539 260.9605 15.08824238 54090,6917.929,95.439,540.721,538.867,0.0
51895.0,STARLINK-3594,PAYLOAD,2023-02-13 13:08:03,15.08849718,0.000139,53.2143,347.6418,95.8706,264.2445,0.0022179,0.00035196,0.0,0 STARLINK-3594,1 51895U 22022AV  23044.54725809  .00035196  00000-0  22179-2 0  9996,2 51895  53.2143 347.6418 0001390  95.8706 264.2445 15.08849718 54141,6917.851,95.437,540.677,538.754,0.0
51895.0,STARLINK-3594,PAYLOAD,2023-02-14 12:58:48,15.08883798,0.0001097,53.2151,343.1811,53.1592,306.9501,0.0017103,0.00027069,0.0,0 STARLINK-3594,1 51895U 22022AV  23045.54084050  .00027069  00000-0  17103-2 0  9994,2 51895  53.2151 343.1811 0001097  53.1592 306.9501 15.08883798 54291,6917.747,95.435,540.37,538.853,0.0
51895.0,STARLINK-3594,PAYLOAD,2023-02-15 03:17:17,15.0884751,0.0001265,53.2149,340.5045,76.2783,283.835,0.0025451,0.00040458,0.0,0 STARLINK-3594,1 51895U 22022AV  23046.13700581  .00040458  00000-0  25451-2 0  9996,2 51895  53.2149 340.5045 0001265  76.2783 283.8350 15.08847510 54380,6917.857,95.437,540.598,538.847,0.0
51895.0,STARLINK-3594,PAYLOAD,2023-02-15 12:49:36,15.08859763,0.0001403,53.2164,338.7217,78.5853,281.5297,0.0012899,0.00020311,0.0,0 STARLINK-3594,1 51895U 22022AV  23046.53444610  .00020311  00000-0  12899-2 0  9996,2 51895  53.2164 338.7217 0001403  78.5853 281.5297 15.08859763 54449,6917.82,95.436,540.656,538.714,0.0
51895.0,STARLINK-3594,PAYLOAD,2023-02-15 23:57:17,15.08861656,0.0001374,53.2157,336.6399,79.8853,280.2295,0.0010861,0.0001705,0.0,0 STARLINK-3594,1 51895U 22022AV  23046.99812141  .00017050  00000-0  10861-2 0  9997,2 51895  53.2157 336.6399 0001374  79.8853 280.2295 15.08861656 54516,6917.814,95.436,540.63,538.729,0.0
51895.0,STARLINK-3594,PAYLOAD,2023-02-16 12:40:22,15.08868038,0.0001732,53.2152,334.26,62.2595,297.8573,0.0010847,0.0001703,0.0,0 STARLINK-3594,1 51895U 22022AV  23047.52803730  .00017030  00000-0  10847-2 0  9993,2 51895  53.2152 334.2600 0001732  62.2595 297.8573 15.08868038 54599,6917.795,95.436,540.858,538.462,0.0
51895.0,STARLINK-3594,PAYLOAD,2023-02-17 04:34:13,15.08853467,0.0001262,53.2155,331.2856,63.5319,296.5802,0.0024428,0.00038818,0.0,0 STARLINK-3594,1 51895U 22022AV  23048.19043962  .00038818  00000-0  24428-2 0  9997,2 51895  53.2155 331.2856 0001262  63.5319 296.5802 15.08853467 54690,6917.839,95.437,540.577,538.831,0.0
51895.0,STARLINK-3594,PAYLOAD,2023-02-17 23:38:53,15.08819049,8.96e-05,53.2157,327.7172,74.9273,285.1818,0.001219,0.00019154,0.0,0 STARLINK-3594,1 51895U 22022AV  23048.98533735  .00019154  00000-0  12190-2 0  9991,2 51895  53.2157 327.7172 0000896  74.9273 285.1818 15.08819049 54813,6917.944,95.439,540.429,539.19,0.0
51895.0,STARLINK-3594,PAYLOAD,2023-02-18 06:00:26,15.0882328,0.0001031,53.2158,326.5275,76.247,283.8637,0.001124,0.00017638,0.0,0 STARLINK-3594,1 51895U 22022AV  23049.25030152  .00017638  00000-0  11240-2 0  9997,2 51895  53.2158 326.5275 0001031  76.2470 283.8637 15.08823280 54851,6917.931,95.439,540.51,539.083,0.0
51895.0,STARLINK-3594,PAYLOAD,2023-02-19 01:05:03,15.08871838,9.89e-05,53.2161,322.9602,67.7125,292.3972,0.0014934,0.0002358,0.0,0 STARLINK-3594,1 51895U 22022AV  23050.04517403  .00023580  00000-0  14934-2 0  9991,2 51895  53.2161 322.9602 0000989  67.7125 292.3972 15.08871838 54974,6917.783,95.436,540.332,538.964,0.0
51895.0,STARLINK-3594,PAYLOAD,2023-02-19 10:37:21,15.08868906,0.0001154,53.216,321.1747,78.0486,282.0636,0.0011543,0.00018145,0.0,0 STARLINK-3594,1 51895U 22022AV  23050.44260966  .00018145  00000-0  11543-2 0  9998,2 51895  53.2160 321.1747 0001154  78.0486 282.0636 15.08868906 55037,6917.792,95.436,540.455,538.859,0.0
51895.0,STARLINK-3594,PAYLOAD,2023-02-19 23:20:26,15.08859123,0.0001363,53.2158,318.7966,90.1968,269.918,0.0013483,0.00021247,0.0,0 STARLINK-3594,1 51895U 22022AV  23050.97252780  .00021247  00000-0  13483-2 0  9993,2 51895  53.2158 318.7966 0001363  90.1968 269.9180 15.08859123 55119,6917.822,95.436,540.63,538.744,0.0
51895.0,STARLINK-3594,PAYLOAD,2023-02-20 00:55:49,15.08862044,0.000131,53.216,318.499,90.526,269.5882,0.0017647,0.00027926,0.0,0 STARLINK-3594,1 51895U 22022AV  23051.03876719  .00027926  00000-0  17647-2 0  9991,2 51895  53.2160 318.4990 0001310  90.5260 269.5882 15.08862044 55129,6917.813,95.436,540.584,538.772,0.0
51895.0,STARLINK-3594,PAYLOAD,2023-02-20 23:11:13,15.08849126,0.0001427,53.215,314.3347,99.5447,260.5706,0.00026109,3.871e-05,0.0,0 STARLINK-3594,1 51895U 22022AV  23051.96612530  .00003871  00000-0  26109-3 0  9999,2 51895  53.2150 314.3347 0001427  99.5447 260.5706 15.08849126 55261,6917.852,95.437,540.705,538.73,0.0
51895.0,STARLINK-3594,PAYLOAD,2023-02-21 10:18:55,15.08850452,0.0001774,53.2152,312.255,87.4965,272.623,0.00051316,7.891e-05,0.0,0 STARLINK-3594,1 51895U 22022AV  23052.42980472  .00007891  00000-0  51316-3 0  9998,2 51895  53.2152 312.2550 0001774  87.4965 272.6230 15.08850452 55330,6917.848,95.437,540.941,538.486,0.0
51895.0,STARLINK-3594,PAYLOAD,2023-02-21 16:40:27,15.08842033,0.000189,53.2149,311.0657,86.5499,273.5709,0.00016953,2.411e-05,0.0,0 STARLINK-3594,1 51895U 22022AV  23052.69476588  .00002411  00000-0  16953-3 0  9996,2 51895  53.2149 311.0657 0001890  86.5499 273.5709 15.08842033 55373,6917.874,95.437,541.047,538.432,0.0
51895.0,STARLINK-3594,PAYLOAD,2023-02-21 21:26:36,15.08851381,0.0001752,53.2161,310.175,90.8629,269.2564,0.00027199,4.045e-05,0.0,0 STARLINK-3594,1 51895U 22022AV  23052.89348235  .00004045  00000-0  27199-3 0  9994,2 51895  53.2161 310.1750 0001752  90.8629 269.2564 15.08851381 55402,6917.846,95.437,540.923,538.499,0.0
51895.0,STARLINK-3594,PAYLOAD,2023-02-22 02:12:46,15.08855849,0.0001582,53.2149,309.281,90.0229,270.0945,0.00060032,9.283e-05,0.0,0 STARLINK-3594,1 51895U 22022AV  23053.09220036  .00009283  00000-0  60032-3 0  9997,2 51895  53.2149 309.2810 0001582  90.0229 270.0945 15.08855849 55432,6917.832,95.437,540.791,538.603,0.0
51895.0,STARLINK-3594,PAYLOAD,2023-02-22 22:52:47,15.08832637,0.0001305,53.2134,305.4145,82.6443,277.4698,0.00025296,3.739e-05,0.0,0 STARLINK-3594,1 51895U 22022AV  23053.95333043  .00003739  00000-0  25296-3 0  9998,2 51895  53.2134 305.4145 0001305  82.6443 277.4698 15.08832637 55563,6917.903,95.438,540.671,538.865,0.0
51895.0,STARLINK-3594,PAYLOAD,2023-02-23 02:03:34,15.08838303,0.0001322,53.2136,304.8197,78.7843,281.3297,0.0005981,9.243e-05,0.0,0 STARLINK-3594,1 51895U 22022AV  23054.08581100  .00009243  00000-0  59810-3 0  9997,2 51895  53.2136 304.8197 0001322  78.7843 281.3297 15.08838303 55581,6917.886,95.438,540.665,538.836,0.0
51895.0,STARLINK-3594,PAYLOAD,2023-02-23 19:32:48,15.08851439,0.0001341,53.2139,301.548,75.7729,284.3412,0.00087856,0.00013726,0.0,0 STARLINK-3594,1 51895U 22022AV  23054.81445114  .00013726  00000-0  87856-3 0  9994,2 51895  53.2139 301.5480 0001341  75.7729 284.3412 15.08851439 55693,6917.845,95.437,540.638,538.783,0.0
51895.0,STARLINK-3594,PAYLOAD,2023-02-23 22:43:34,15.08859509,0.0001341,53.2137,300.9527,82.3851,277.7293,0.0010602,0.00016634,0.0,0 STARLINK-3594,1 51895U 22022AV  23054.94692880  .00016634  00000-0  10602-2 0  9997,2 51895  53.2137 300.9527 0001341  82.3851 277.7293 15.08859509 55718,6917.821,95.436,540.613,538.758,0.0
51895.0,STARLINK-3594,PAYLOAD,2023-02-24 16:12:49,15.08846167,0.0001473,53.2137,297.682,77.7441,282.3716,0.00032814,4.939e-05,0.0,0 STARLINK-3594,1 51895U 22022AV  23055.67557048  .00004939  00000-0  32814-3 0  9999,2 51895  53.2137 297.6820 0001473  77.7441 282.3716 15.08846167 55825,6917.862,95.437,540.746,538.708,0.0
51895.0,STARLINK-3594,PAYLOAD,2023-02-24 22:34:21,15.08838046,0.0001326,53.2136,296.4919,92.1459,267.9685,8.9626e-05,1.139e-05,0.0,0 STARLINK-3594,1 51895U 22022AV  23055.94053020  .00001139  00000-0  89626-4 0  9993,2 51895  53.2136 296.4919 0001326  92.1459 267.9685 15.08838046 55862,6917.886,95.438,540.669,538.834,0.0
51895.0,STARLINK-3594,PAYLOAD,2023-02-25 01:45:08,15.08839045,0.0001292,53.2139,295.8969,92.033,268.081,0.0002208,3.228e-05,0.0,0 STARLINK-3594,1 51895U 22022AV  23056.07301113  .00003228  00000-0  22080-3 0  9998,2 51895  53.2139 295.8969 0001292  92.0330 268.0810 15.08839045 55886,6917.883,95.438,540.642,538.855,0.0
51895.0,STARLINK-3594,PAYLOAD,2023-02-25 22:25:08,15.08846791,0.0001195,53.2138,292.0315,88.361,271.7519,0.00029964,4.485e-05,0.0,0 STARLINK-3594,1 51895U 22022AV  23056.93413131  .00004485  00000-0  29964-3 0  9991,2 51895  53.2138 292.0315 0001195  88.3610 271.7519 15.08846791 56019,6917.86,95.437,540.551,538.898,0.0
51895.0,STARLINK-3594,PAYLOAD,2023-02-26 15:54:23,15.08850749,0.0001147,53.2135,288.7608,90.2841,269.8282,0.00039673,6.034e-05,0.0,0 STARLINK-3594,1 51895U 22022AV  23057.66276952  .00006034  00000-0  39673-3 0  9990,2 51895  53.2135 288.7608 0001147  90.2841 269.8282 15.08850749 56123,6917.848,95.437,540.506,538.919,0.0
51895.0,STARLINK-3594,PAYLOAD,2023-02-26 22:15:55,15.08855978,0.0001127,53.213,287.5721,90.7317,269.3804,0.0004425,6.765e-05,0.0,0 STARLINK-3594,1 51895U 22022AV  23057.92772625  .00006765  00000-0  44250-3 0  9995,2 51895  53.2130 287.5721 0001127  90.7317 269.3804 15.08855978 56160,6917.832,95.437,540.476,538.917,0.0
